IRIDIUM 116             
1 43072U 17083C   24327.11313646  .00000405  00000+0  13752-3 0  9997
2 43072  86.4013 201.0758 0001899  80.0562 280.0848 14.34217827362179
IRIDIUM 130             
1 43073U 17083D   24326.17444499  .00000489  00000+0  16764-3 0  9992
2 43073  86.4022 201.6867 0002107  79.0086 281.1346 14.34219409361980
IRIDIUM 151             
1 43074U 17083E   24327.05607254  .00000574  00000+0  19797-3 0  9995
2 43074  86.4014 201.1443 0001864  85.9781 274.1627 14.34218567362130
IRIDIUM 134             
1 43075U 17083F   24326.53596193  .00000200  00000+0  64244-4 0  9991
2 43075  86.4016 201.3616 0001938  80.4471 279.6943 14.34218291362028
IRIDIUM 137             
1 43076U 17083G   24327.10679290  .00000473  00000+0  16191-3 0  9995
2 43076  86.4017 201.2044 0001393  84.5757 275.5598 14.34219604362177
IRIDIUM 141             
1 43077U 17083H   24326.19346841  .00000492  00000+0  16871-3 0  9993
2 43077  86.4013 201.4489 0002263  85.7295 274.4159 14.34220691362041
IRIDIUM 153             
1 43078U 17083J   24327.05263066  .00000348  00000+0  11724-3 0  9999
2 43078  86.3998 169.6202 0002590  94.2039 265.9453 14.34218051363270
IRIDIUM 131             
1 43079U 17083K   24327.01799356  .00000484  00000+0  16561-3 0  9997
2 43079  86.4017 201.2525 0002080  88.0840 272.0594 14.34222794362093
